{
"type": "FeatureCollection",
"name": "facilities",
"crs": { "type": "name", "properties": { "name": "urn:ogc:def:crs:OGC:1.3:CRS84" } },
"features": [
{ "type": "Feature", "properties": { "facility_id": "2077157838", "name": "ZoomCare", "amenity": "clinic" }, "geometry": { "type": "Point", "coordinates": [ -122.321117, 47.6239528 ] } },
{ "type": "Feature", "properties": { "facility_id": "2351712047", "name": "Pioneer Square Clinic", "amenity": "clinic" }, "geometry": { "type": "Point", "coordinates": [ -122.330051, 47.6005663 ] } },
{ "type": "Feature", "properties": { "facility_id": "2372771187", "name": "Pacific Medical Centers Beacon Hill", "amenity": "clinic" }, "geometry": { "type": "Point", "coordinates": [ -122.3153277, 47.5927077 ] } },
{ "type": "Feature", "properties": { "facility_id": "2375303497", "name": "MTI Physical Therapy", "amenity": "clinic" }, "geometry": { "type": "Point", "coordinates": [ -122.3164883, 47.6064792 ] } },
{ "type": "Feature", "properties": { "facility_id": "2383893030", "name": "Country Doctor", "amenity": "clinic" }, "geometry": { "type": "Point", "coordinates": [ -122.30698, 47.623424 ] } },
{ "type": "Feature", "properties": { "facility_id": "2400043330", "name": "ZoomCare", "amenity": "clinic" }, "geometry": { "type": "Point", "coordinates": [ -122.338252, 47.6189497 ] } },
{ "type": "Feature", "properties": { "facility_id": "2400948792", "name": "Northbound Treatment Services", "amenity": "clinic" }, "geometry": { "type": "Point", "coordinates": [ -122.3590685, 47.6236486 ] } },
{ "type": "Feature", "properties": { "facility_id": "2404244874", "name": "ZoomCare", "amenity": "clinic" }, "geometry": { "type": "Point", "coordinates": [ -122.333804, 47.609864 ] } },
{ "type": "Feature", "properties": { "facility_id": "2434531630", "name": "ICHS", "amenity": "clinic" }, "geometry": { "type": "Point", "coordinates": [ -122.322052, 47.5961337 ] } },
{ "type": "Feature", "properties": { "facility_id": "2778695976", "name": "ZoomCare", "amenity": "clinic" }, "geometry": { "type": "Point", "coordinates": [ -122.345981, 47.6140073 ] } },
{ "type": "Feature", "properties": { "facility_id": "2939935901", "name": "One Medical", "amenity": "clinic" }, "geometry": { "type": "Point", "coordinates": [ -122.320587, 47.616277 ] } },
{ "type": "Feature", "properties": { "facility_id": "2965294497", "name": "St. Paul Medical Clinic", "amenity": "clinic" }, "geometry": { "type": "Point", "coordinates": [ -122.3261743, 47.5980225 ] } },
{ "type": "Feature", "properties": { "facility_id": "3428135285", "name": "Downtown Seattle Medical Center", "amenity": "clinic" }, "geometry": { "type": "Point", "coordinates": [ -122.3340592, 47.610242 ] } },
{ "type": "Feature", "properties": { "facility_id": "4379826028", "name": "Seattle Surgery Center", "amenity": "clinic" }, "geometry": { "type": "Point", "coordinates": [ -122.3255531, 47.6084402 ] } },
{ "type": "Feature", "properties": { "facility_id": "4639109916", "name": "Pike Market Medical Clinic", "amenity": "clinic" }, "geometry": { "type": "Point", "coordinates": [ -122.3428229, 47.6106589 ] } },
{ "type": "Feature", "properties": { "facility_id": "6258690609", "name": "Karalis Johnson Retina Center", "amenity": "clinic" }, "geometry": { "type": "Point", "coordinates": [ -122.342059, 47.6234815 ] } },
{ "type": "Feature", "properties": { "facility_id": "7006940186", "name": "Rof Medical Center", "amenity": "clinic" }, "geometry": { "type": "Point", "coordinates": [ -122.313616, 47.5994776 ] } },
{ "type": "Feature", "properties": { "facility_id": "8196264372", "name": "Unknown Facility", "amenity": "clinic" }, "geometry": { "type": "Point", "coordinates": [ -122.3377593, 47.5903695 ] } },
{ "type": "Feature", "properties": { "facility_id": "9561874297", "name": "Seattle Children's Odessa Brown Children's Clinic Central District", "amenity": "clinic" }, "geometry": { "type": "Point", "coordinates": [ -122.3095484, 47.5991078 ] } },
{ "type": "Feature", "properties": { "facility_id": "9773263745", "name": "One Medical", "amenity": "clinic" }, "geometry": { "type": "Point", "coordinates": [ -122.3377492, 47.6186723 ] } },
{ "type": "Feature", "properties": { "facility_id": "9815565782", "name": "Passport Health Downtown Seattle Travel Clinic", "amenity": "clinic" }, "geometry": { "type": "Point", "coordinates": [ -122.3381744, 47.6098914 ] } },
{ "type": "Feature", "properties": { "facility_id": "10183379656", "name": "Seattle Infectious Disease Clinic", "amenity": "clinic" }, "geometry": { "type": "Point", "coordinates": [ -122.3367365, 47.6127982 ] } },
{ "type": "Feature", "properties": { "facility_id": "10795766511", "name": "Kinwell", "amenity": "clinic" }, "geometry": { "type": "Point", "coordinates": [ -122.3382461, 47.62057 ] } },
{ "type": "Feature", "properties": { "facility_id": "10978233484", "name": "Unknown Facility", "amenity": "clinic" }, "geometry": { "type": "Point", "coordinates": [ -122.3466134, 47.6187339 ] } },
{ "type": "Feature", "properties": { "facility_id": "12021390360", "name": "Providence Heritage House at the Market", "amenity": "clinic" }, "geometry": { "type": "Point", "coordinates": [ -122.3421412, 47.6089338 ] } },
{ "type": "Feature", "properties": { "facility_id": "13159938701", "name": "UW Family Medicine Clinic at Harborview", "amenity": "clinic" }, "geometry": { "type": "Point", "coordinates": [ -122.3209484, 47.6055653 ] } },
{ "type": "Feature", "properties": { "facility_id": "13481002029", "name": "AIMS Institute", "amenity": "clinic" }, "geometry": { "type": "Point", "coordinates": [ -122.3098898, 47.5921329 ] } }
]
}
