{
"type": "FeatureCollection",
"name": "facilities",
"crs": { "type": "name", "properties": { "name": "urn:ogc:def:crs:OGC:1.3:CRS84" } },
"features": [
{ "type": "Feature", "properties": { "element": "node", "id": 6332483585, "addr:city": "Portland", "addr:housenumber": "202", "addr:postcode": "97209", "addr:state": "OR", "addr:street": "Northwest 13th Avenue", "amenity": "clinic", "branch": "Pearl District", "brand": "ZoomCare", "brand:wikidata": "Q64120374", "check_date": "2025-06-19", "contact:website": "https://www.zoomcare.com/clinic/zoomcare-pearl-district", "healthcare": "clinic", "healthcare:speciality": "urgent", "name": "ZoomCare", "operator": "ZoomCare", "operator:type": "private", "operator:wikidata": "Q64120374", "urgent_care": "yes", "website": "nan", "addr:country": "nan", "phone": "nan", "wikidata": "nan", "addr:unit": "nan", "check_date:opening_hours": "nan", "internet_access": "nan", "opening_hours": "nan", "building": "nan", "building:levels": "nan", "note": "nan", "ref": "nan", "operator:short": "nan", "height": "nan" }, "geometry": { "type": "Point", "coordinates": [ -122.684033, 45.5244715 ] } },
{ "type": "Feature", "properties": { "element": "node", "id": 6422725708, "addr:city": "Portland", "addr:housenumber": "727", "addr:postcode": "97209", "addr:state": "OR", "addr:street": "West Burnside Street", "amenity": "clinic", "branch": "nan", "brand": "nan", "brand:wikidata": "nan", "check_date": "nan", "contact:website": "nan", "healthcare": "clinic", "healthcare:speciality": "nan", "name": "Old Town Clinic", "operator": "Central City Concern", "operator:type": "nan", "operator:wikidata": "nan", "urgent_care": "nan", "website": "https://www.centralcityconcern.org/", "addr:country": "nan", "phone": "nan", "wikidata": "nan", "addr:unit": "nan", "check_date:opening_hours": "nan", "internet_access": "nan", "opening_hours": "nan", "building": "nan", "building:levels": "nan", "note": "nan", "ref": "nan", "operator:short": "nan", "height": "nan" }, "geometry": { "type": "Point", "coordinates": [ -122.6781525, 45.5232118 ] } },
{ "type": "Feature", "properties": { "element": "node", "id": 6442418549, "addr:city": "Portland", "addr:housenumber": "110", "addr:postcode": "97209", "addr:state": "OR", "addr:street": "Northwest 3rd Avenue", "amenity": "police", "branch": "nan", "brand": "nan", "brand:wikidata": "nan", "check_date": "nan", "contact:website": "nan", "healthcare": "nan", "healthcare:speciality": "nan", "name": "Old Town Precinct", "operator": "Portland Police Bureau", "operator:type": "nan", "operator:wikidata": "nan", "urgent_care": "nan", "website": "https://www.portland.gov/police", "addr:country": "nan", "phone": "nan", "wikidata": "nan", "addr:unit": "nan", "check_date:opening_hours": "nan", "internet_access": "nan", "opening_hours": "nan", "building": "nan", "building:levels": "nan", "note": "nan", "ref": "nan", "operator:short": "nan", "height": "nan" }, "geometry": { "type": "Point", "coordinates": [ -122.6732165, 45.5240281 ] } },
{ "type": "Feature", "properties": { "element": "node", "id": 6595803911, "addr:city": "Portland", "addr:housenumber": "1111", "addr:postcode": "97204", "addr:state": "nan", "addr:street": "Southwest 2nd Avenue", "amenity": "police", "branch": "nan", "brand": "nan", "brand:wikidata": "nan", "check_date": "nan", "contact:website": "nan", "healthcare": "nan", "healthcare:speciality": "nan", "name": "Portland Police Bureau", "operator": "nan", "operator:type": "nan", "operator:wikidata": "nan", "urgent_care": "nan", "website": "https://www.portland.gov/police", "addr:country": "US", "phone": "+1-503-823-0000", "wikidata": "Q450439", "addr:unit": "nan", "check_date:opening_hours": "nan", "internet_access": "nan", "opening_hours": "nan", "building": "nan", "building:levels": "nan", "note": "nan", "ref": "nan", "operator:short": "nan", "height": "nan" }, "geometry": { "type": "Point", "coordinates": [ -122.6763714, 45.5150472 ] } },
{ "type": "Feature", "properties": { "element": "node", "id": 6773241856, "addr:city": "Portland", "addr:housenumber": "619", "addr:postcode": "97209", "addr:state": "nan", "addr:street": "Northwest 6th Avenue", "amenity": "clinic", "branch": "nan", "brand": "nan", "brand:wikidata": "nan", "check_date": "nan", "contact:website": "nan", "healthcare": "clinic", "healthcare:speciality": "nan", "name": "Multnomah County Health Department", "operator": "nan", "operator:type": "nan", "operator:wikidata": "nan", "urgent_care": "nan", "website": "nan", "addr:country": "nan", "phone": "+1-503-988-3674", "wikidata": "nan", "addr:unit": "nan", "check_date:opening_hours": "nan", "internet_access": "nan", "opening_hours": "nan", "building": "nan", "building:levels": "nan", "note": "nan", "ref": "nan", "operator:short": "nan", "height": "nan" }, "geometry": { "type": "Point", "coordinates": [ -122.6768874, 45.527688 ] } },
{ "type": "Feature", "properties": { "element": "node", "id": 7590106933, "addr:city": "Portland", "addr:housenumber": "619", "addr:postcode": "97209", "addr:state": "OR", "addr:street": "Northwest 6th Avenue", "amenity": "clinic", "branch": "nan", "brand": "nan", "brand:wikidata": "nan", "check_date": "nan", "contact:website": "nan", "healthcare": "clinic", "healthcare:speciality": "nan", "name": "Multnomah County STD Clinic", "operator": "nan", "operator:type": "nan", "operator:wikidata": "nan", "urgent_care": "nan", "website": "https://multco.us/health", "addr:country": "nan", "phone": "+1-503-988-3700", "wikidata": "nan", "addr:unit": "2nd Floor", "check_date:opening_hours": "nan", "internet_access": "nan", "opening_hours": "nan", "building": "nan", "building:levels": "nan", "note": "nan", "ref": "nan", "operator:short": "nan", "height": "nan" }, "geometry": { "type": "Point", "coordinates": [ -122.6768747, 45.5275971 ] } },
{ "type": "Feature", "properties": { "element": "node", "id": 9788782470, "addr:city": "Portland", "addr:housenumber": "1515", "addr:postcode": "97201", "addr:state": "OR", "addr:street": "southwest 5th avenue", "amenity": "clinic", "branch": "nan", "brand": "nan", "brand:wikidata": "nan", "check_date": "nan", "contact:website": "nan", "healthcare": "clinic", "healthcare:speciality": "travel_clinic;vaccination", "name": "Passport Health Portland Travel Clinic", "operator": "Passport Health", "operator:type": "private", "operator:wikidata": "Q30270336", "urgent_care": "nan", "website": "nan", "addr:country": "nan", "phone": "nan", "wikidata": "nan", "addr:unit": "660B", "check_date:opening_hours": "nan", "internet_access": "nan", "opening_hours": "nan", "building": "nan", "building:levels": "nan", "note": "nan", "ref": "nan", "operator:short": "nan", "height": "nan" }, "geometry": { "type": "Point", "coordinates": [ -122.683425, 45.518682 ] } },
{ "type": "Feature", "properties": { "element": "node", "id": 14023053001, "addr:city": "nan", "addr:housenumber": "200", "addr:postcode": "97201", "addr:state": "nan", "addr:street": "Southwest Market Street", "amenity": "clinic", "branch": "nan", "brand": "nan", "brand:wikidata": "nan", "check_date": "2026-07-17", "contact:website": "nan", "healthcare": "clinic", "healthcare:speciality": "nan", "name": "The Eye Group Dispensary", "operator": "nan", "operator:type": "nan", "operator:wikidata": "nan", "urgent_care": "nan", "website": "http://eyegroupassociates.com", "addr:country": "nan", "phone": "+1-503-223-8147", "wikidata": "nan", "addr:unit": "L120", "check_date:opening_hours": "2026-07-17", "internet_access": "wlan", "opening_hours": "Mo-Fr 08:00-17:00", "building": "nan", "building:levels": "nan", "note": "nan", "ref": "nan", "operator:short": "nan", "height": "nan" }, "geometry": { "type": "Point", "coordinates": [ -122.6783311, 45.5116803 ] } },
{ "type": "Feature", "properties": { "element": "way", "id": 31742379, "addr:city": "Portland", "addr:housenumber": "55", "addr:postcode": "97204", "addr:state": "OR", "addr:street": "Southwest Ash Street", "amenity": "fire_station", "branch": "Station 01 - Old Town", "brand": "nan", "brand:wikidata": "nan", "check_date": "nan", "contact:website": "https://www.portlandoregon.gov/fire/article/56351", "healthcare": "nan", "healthcare:speciality": "nan", "name": "Portland Fire & Rescue", "operator": "Portland Fire & Rescue", "operator:type": "nan", "operator:wikidata": "Q25001404", "urgent_care": "nan", "website": "nan", "addr:country": "nan", "phone": "nan", "wikidata": "nan", "addr:unit": "nan", "check_date:opening_hours": "nan", "internet_access": "nan", "opening_hours": "nan", "building": "yes", "building:levels": "3", "note": "Station 1", "ref": "1", "operator:short": "nan", "height": "nan" }, "geometry": { "type": "Polygon", "coordinates": [ [ [ -122.670883, 45.5216902 ], [ -122.6705994, 45.5216702 ], [ -122.6705297, 45.5221558 ], [ -122.6707052, 45.5221682 ], [ -122.6708133, 45.5221758 ], [ -122.6708403, 45.5219875 ], [ -122.6709348, 45.5219941 ], [ -122.6709445, 45.5219269 ], [ -122.67085, 45.5219202 ], [ -122.6708659, 45.5218099 ], [ -122.670883, 45.5216902 ] ] ] } },
{ "type": "Feature", "properties": { "element": "way", "id": 121782802, "addr:city": "Portland", "addr:housenumber": "633", "addr:postcode": "97201", "addr:state": "OR", "addr:street": "Southwest Montgomery Street", "amenity": "police", "branch": "nan", "brand": "nan", "brand:wikidata": "nan", "check_date": "nan", "contact:website": "nan", "healthcare": "nan", "healthcare:speciality": "nan", "name": "Campus Public Safety", "operator": "Portland State University", "operator:type": "university", "operator:wikidata": "Q1771717", "urgent_care": "nan", "website": "https://www.pdx.edu/buildings/campus-building/campus-public-safety", "addr:country": "nan", "phone": "nan", "wikidata": "nan", "addr:unit": "nan", "check_date:opening_hours": "nan", "internet_access": "nan", "opening_hours": "nan", "building": "yes", "building:levels": "2", "note": "nan", "ref": "KHSE", "operator:short": "PSU", "height": "nan" }, "geometry": { "type": "Polygon", "coordinates": [ [ [ -122.6833831, 45.5121078 ], [ -122.683337, 45.5121936 ], [ -122.6831988, 45.5121571 ], [ -122.6831673, 45.5122157 ], [ -122.68303, 45.5121794 ], [ -122.6830764, 45.5120932 ], [ -122.6830147, 45.5120769 ], [ -122.6830728, 45.5119689 ], [ -122.6831797, 45.5119971 ], [ -122.6831334, 45.5120833 ], [ -122.6832183, 45.5121057 ], [ -122.6832378, 45.5120694 ], [ -122.6833831, 45.5121078 ] ] ] } },
{ "type": "Feature", "properties": { "element": "way", "id": 127013325, "addr:city": "Portland", "addr:housenumber": "05", "addr:postcode": "97214", "addr:state": "OR", "addr:street": "Southeast Madison Street", "amenity": "fire_station", "branch": "Station 21 - Eastbank/Hawthorne", "brand": "nan", "brand:wikidata": "nan", "check_date": "nan", "contact:website": "https://www.portlandoregon.gov/fire/article/56416", "healthcare": "nan", "healthcare:speciality": "nan", "name": "Portland Fire & Rescue", "operator": "Portland Fire & Rescue", "operator:type": "nan", "operator:wikidata": "Q25001404", "urgent_care": "nan", "website": "nan", "addr:country": "nan", "phone": "+1-503-823-3700", "wikidata": "nan", "addr:unit": "nan", "check_date:opening_hours": "nan", "internet_access": "nan", "opening_hours": "nan", "building": "yes", "building:levels": "nan", "note": "nan", "ref": "21", "operator:short": "nan", "height": "nan" }, "geometry": { "type": "Polygon", "coordinates": [ [ [ -122.6682884, 45.5131522 ], [ -122.6682874, 45.513114 ], [ -122.6684371, 45.513112 ], [ -122.6684438, 45.5133624 ], [ -122.6681798, 45.5133659 ], [ -122.6681741, 45.5131537 ], [ -122.6682884, 45.5131522 ] ] ] } },
{ "type": "Feature", "properties": { "element": "way", "id": 156259873, "addr:city": "nan", "addr:housenumber": "nan", "addr:postcode": "nan", "addr:state": "nan", "addr:street": "nan", "amenity": "clinic", "branch": "nan", "brand": "nan", "brand:wikidata": "nan", "check_date": "nan", "contact:website": "nan", "healthcare": "nan", "healthcare:speciality": "physiatry", "name": "Providence Sports Care Center", "operator": "nan", "operator:type": "nan", "operator:wikidata": "nan", "urgent_care": "nan", "website": "nan", "addr:country": "nan", "phone": "nan", "wikidata": "nan", "addr:unit": "nan", "check_date:opening_hours": "nan", "internet_access": "nan", "opening_hours": "nan", "building": "stadium", "building:levels": "nan", "note": "nan", "ref": "nan", "operator:short": "nan", "height": "13.91" }, "geometry": { "type": "Polygon", "coordinates": [ [ [ -122.6915527, 45.5207299 ], [ -122.6914696, 45.5207423 ], [ -122.6913306, 45.5208256 ], [ -122.6911944, 45.520789 ], [ -122.6912648, 45.5206634 ], [ -122.6912959, 45.5206081 ], [ -122.691579, 45.5206773 ], [ -122.6915527, 45.5207299 ] ] ] } },
{ "type": "Feature", "properties": { "element": "way", "id": 392193354, "addr:city": "nan", "addr:housenumber": "nan", "addr:postcode": "nan", "addr:state": "nan", "addr:street": "nan", "amenity": "fire_station", "branch": "Station 21 Boathouse", "brand": "nan", "brand:wikidata": "nan", "check_date": "nan", "contact:website": "https://www.portlandoregon.gov/fire/article/56416", "healthcare": "nan", "healthcare:speciality": "nan", "name": "Portland Fire & Rescue", "operator": "Portland Fire & Rescue", "operator:type": "nan", "operator:wikidata": "Q25001404", "urgent_care": "nan", "website": "nan", "addr:country": "nan", "phone": "nan", "wikidata": "nan", "addr:unit": "nan", "check_date:opening_hours": "nan", "internet_access": "nan", "opening_hours": "nan", "building": "yes", "building:levels": "nan", "note": "nan", "ref": "21", "operator:short": "nan", "height": "nan" }, "geometry": { "type": "Polygon", "coordinates": [ [ [ -122.669096, 45.513778 ], [ -122.6690798, 45.5135532 ], [ -122.6688618, 45.5135609 ], [ -122.668878, 45.5137857 ], [ -122.669096, 45.513778 ] ] ] } }
]
}
