{
"type": "FeatureCollection",
"name": "facilities",
"crs": { "type": "name", "properties": { "name": "urn:ogc:def:crs:OGC:1.3:CRS84" } },
"features": [
{ "type": "Feature", "properties": { "element": "node", "id": 2351712047, "addr:city": "Seattle", "addr:housenumber": "206", "addr:postcode": "98104", "addr:state": "WA", "addr:street": "3rd Avenue South", "amenity": "clinic", "healthcare": "clinic", "name": "Pioneer Square Clinic", "phone": "+1-206-521-1750", "source": "Pioneer Square Association;King County GIS;data.seattle.gov", "brand": "nan", "brand:wikidata": "nan", "operator": "nan", "operator:type": "nan", "operator:wikidata": "nan", "operator:wikipedia": "nan", "urgent_care": "nan", "check_date": "nan", "addr:unit": "nan", "contact:website": "nan", "addr:floor": "nan", "website": "nan", "healthcare:speciality": "nan", "level": "nan", "building": "nan", "note": "nan", "building:levels": "nan", "alt_name": "nan", "building:material": "nan", "start_date": "nan", "wikidata": "nan", "wikipedia": "nan", "disused:amenity": "nan", "beds": "nan", "emergency": "nan", "opening_hours": "nan", "contact:phone": "nan" }, "geometry": { "type": "Point", "coordinates": [ -122.330051, 47.6005663 ] } },
{ "type": "Feature", "properties": { "element": "node", "id": 2351712246, "addr:city": "Seattle", "addr:housenumber": "301", "addr:postcode": "98104", "addr:state": "WA", "addr:street": "2nd Avenue South", "amenity": "fire_station", "healthcare": "nan", "name": "Seattle Fire Department", "phone": "+1-206-386-1400", "source": "Pioneer Square Association;King County GIS;data.seattle.gov", "brand": "nan", "brand:wikidata": "nan", "operator": "nan", "operator:type": "nan", "operator:wikidata": "nan", "operator:wikipedia": "nan", "urgent_care": "nan", "check_date": "nan", "addr:unit": "nan", "contact:website": "nan", "addr:floor": "nan", "website": "nan", "healthcare:speciality": "nan", "level": "nan", "building": "nan", "note": "nan", "building:levels": "nan", "alt_name": "nan", "building:material": "nan", "start_date": "nan", "wikidata": "nan", "wikipedia": "nan", "disused:amenity": "nan", "beds": "nan", "emergency": "nan", "opening_hours": "nan", "contact:phone": "nan" }, "geometry": { "type": "Point", "coordinates": [ -122.331918, 47.5998689 ] } },
{ "type": "Feature", "properties": { "element": "node", "id": 2404244874, "addr:city": "Seattle", "addr:housenumber": "517", "addr:postcode": "98101", "addr:state": "WA", "addr:street": "Union Street", "amenity": "clinic", "healthcare": "clinic", "name": "ZoomCare", "phone": "nan", "source": "King County GIS;data.seattle.gov", "brand": "ZoomCare", "brand:wikidata": "Q64120374", "operator": "ZoomCare", "operator:type": "private", "operator:wikidata": "Q64120374", "operator:wikipedia": "en:ZoomCare", "urgent_care": "yes", "check_date": "nan", "addr:unit": "nan", "contact:website": "nan", "addr:floor": "nan", "website": "nan", "healthcare:speciality": "nan", "level": "nan", "building": "nan", "note": "nan", "building:levels": "nan", "alt_name": "nan", "building:material": "nan", "start_date": "nan", "wikidata": "nan", "wikipedia": "nan", "disused:amenity": "nan", "beds": "nan", "emergency": "nan", "opening_hours": "nan", "contact:phone": "nan" }, "geometry": { "type": "Point", "coordinates": [ -122.333804, 47.609864 ] } },
{ "type": "Feature", "properties": { "element": "node", "id": 2965294497, "addr:city": "nan", "addr:housenumber": "nan", "addr:postcode": "nan", "addr:state": "nan", "addr:street": "nan", "amenity": "clinic", "healthcare": "clinic", "name": "St. Paul Medical Clinic", "phone": "+1-206-682-7059", "source": "nan", "brand": "nan", "brand:wikidata": "nan", "operator": "nan", "operator:type": "nan", "operator:wikidata": "nan", "operator:wikipedia": "nan", "urgent_care": "nan", "check_date": "2025-08-02", "addr:unit": "nan", "contact:website": "nan", "addr:floor": "nan", "website": "nan", "healthcare:speciality": "nan", "level": "nan", "building": "nan", "note": "nan", "building:levels": "nan", "alt_name": "nan", "building:material": "nan", "start_date": "nan", "wikidata": "nan", "wikipedia": "nan", "disused:amenity": "nan", "beds": "nan", "emergency": "nan", "opening_hours": "nan", "contact:phone": "nan" }, "geometry": { "type": "Point", "coordinates": [ -122.3261743, 47.5980225 ] } },
{ "type": "Feature", "properties": { "element": "node", "id": 3428135285, "addr:city": "Seattle", "addr:housenumber": "1420", "addr:postcode": "98101", "addr:state": "WA", "addr:street": "5th Avenue", "amenity": "clinic", "healthcare": "clinic", "name": "Downtown Seattle Medical Center", "phone": "nan", "source": "nan", "brand": "nan", "brand:wikidata": "nan", "operator": "Group Health Cooperative", "operator:type": "nan", "operator:wikidata": "nan", "operator:wikipedia": "nan", "urgent_care": "nan", "check_date": "nan", "addr:unit": "375", "contact:website": "http://www.ghc.org/locations/medcenters/4/index.jhtml", "addr:floor": "nan", "website": "nan", "healthcare:speciality": "nan", "level": "nan", "building": "nan", "note": "nan", "building:levels": "nan", "alt_name": "nan", "building:material": "nan", "start_date": "nan", "wikidata": "nan", "wikipedia": "nan", "disused:amenity": "nan", "beds": "nan", "emergency": "nan", "opening_hours": "nan", "contact:phone": "nan" }, "geometry": { "type": "Point", "coordinates": [ -122.3340592, 47.610242 ] } },
{ "type": "Feature", "properties": { "element": "node", "id": 4379826028, "addr:city": "Seattle", "addr:housenumber": "900", "addr:postcode": "98104", "addr:state": "WA", "addr:street": "Terry Avenue", "amenity": "clinic", "healthcare": "clinic", "name": "Seattle Surgery Center", "phone": "nan", "source": "nan", "brand": "nan", "brand:wikidata": "nan", "operator": "nan", "operator:type": "nan", "operator:wikidata": "nan", "operator:wikipedia": "nan", "urgent_care": "nan", "check_date": "nan", "addr:unit": "nan", "contact:website": "nan", "addr:floor": "3", "website": "https://seattlesurgerycenter.com/", "healthcare:speciality": "nan", "level": "nan", "building": "nan", "note": "nan", "building:levels": "nan", "alt_name": "nan", "building:material": "nan", "start_date": "nan", "wikidata": "nan", "wikipedia": "nan", "disused:amenity": "nan", "beds": "nan", "emergency": "nan", "opening_hours": "nan", "contact:phone": "nan" }, "geometry": { "type": "Point", "coordinates": [ -122.3255531, 47.6084402 ] } },
{ "type": "Feature", "properties": { "element": "node", "id": 4639109916, "addr:city": "nan", "addr:housenumber": "nan", "addr:postcode": "nan", "addr:state": "nan", "addr:street": "nan", "amenity": "clinic", "healthcare": "clinic", "name": "Pike Market Medical Clinic", "phone": "nan", "source": "nan", "brand": "nan", "brand:wikidata": "nan", "operator": "nan", "operator:type": "nan", "operator:wikidata": "nan", "operator:wikipedia": "nan", "urgent_care": "nan", "check_date": "nan", "addr:unit": "nan", "contact:website": "nan", "addr:floor": "nan", "website": "nan", "healthcare:speciality": "nan", "level": "nan", "building": "nan", "note": "nan", "building:levels": "nan", "alt_name": "nan", "building:material": "nan", "start_date": "nan", "wikidata": "nan", "wikipedia": "nan", "disused:amenity": "nan", "beds": "nan", "emergency": "nan", "opening_hours": "nan", "contact:phone": "nan" }, "geometry": { "type": "Point", "coordinates": [ -122.3428229, 47.6106589 ] } },
{ "type": "Feature", "properties": { "element": "node", "id": 9815565782, "addr:city": "Seattle", "addr:housenumber": "1511", "addr:postcode": "98101", "addr:state": "WA", "addr:street": "3rd Avenue", "amenity": "clinic", "healthcare": "clinic", "name": "Passport Health Downtown Seattle Travel Clinic", "phone": "nan", "source": "nan", "brand": "nan", "brand:wikidata": "nan", "operator": "Passport Health", "operator:type": "private", "operator:wikidata": "Q30270336", "operator:wikipedia": "nan", "urgent_care": "nan", "check_date": "nan", "addr:unit": "Ste. 915", "contact:website": "nan", "addr:floor": "nan", "website": "nan", "healthcare:speciality": "travel_clinic;vaccination", "level": "nan", "building": "nan", "note": "nan", "building:levels": "nan", "alt_name": "nan", "building:material": "nan", "start_date": "nan", "wikidata": "nan", "wikipedia": "nan", "disused:amenity": "nan", "beds": "nan", "emergency": "nan", "opening_hours": "nan", "contact:phone": "nan" }, "geometry": { "type": "Point", "coordinates": [ -122.3381744, 47.6098914 ] } },
{ "type": "Feature", "properties": { "element": "node", "id": 10183379656, "addr:city": "Seattle", "addr:housenumber": "509", "addr:postcode": "98101", "addr:state": "WA", "addr:street": "Olive Way", "amenity": "clinic", "healthcare": "clinic", "name": "Seattle Infectious Disease Clinic", "phone": "+1-206-682-3444", "source": "nan", "brand": "nan", "brand:wikidata": "nan", "operator": "nan", "operator:type": "nan", "operator:wikidata": "nan", "operator:wikipedia": "nan", "urgent_care": "nan", "check_date": "nan", "addr:unit": "nan", "contact:website": "nan", "addr:floor": "nan", "website": "https://www.seattleidc.com/", "healthcare:speciality": "nan", "level": "nan", "building": "nan", "note": "nan", "building:levels": "nan", "alt_name": "nan", "building:material": "nan", "start_date": "nan", "wikidata": "nan", "wikipedia": "nan", "disused:amenity": "nan", "beds": "nan", "emergency": "nan", "opening_hours": "nan", "contact:phone": "nan" }, "geometry": { "type": "Point", "coordinates": [ -122.3367365, 47.6127982 ] } },
{ "type": "Feature", "properties": { "element": "node", "id": 12021390360, "addr:city": "nan", "addr:housenumber": "nan", "addr:postcode": "nan", "addr:state": "nan", "addr:street": "nan", "amenity": "clinic", "healthcare": "clinic", "name": "Providence Heritage House at the Market", "phone": "nan", "source": "nan", "brand": "nan", "brand:wikidata": "nan", "operator": "nan", "operator:type": "nan", "operator:wikidata": "nan", "operator:wikipedia": "nan", "urgent_care": "nan", "check_date": "2024-06-29", "addr:unit": "nan", "contact:website": "nan", "addr:floor": "nan", "website": "nan", "healthcare:speciality": "nan", "level": "nan", "building": "nan", "note": "nan", "building:levels": "nan", "alt_name": "nan", "building:material": "nan", "start_date": "nan", "wikidata": "nan", "wikipedia": "nan", "disused:amenity": "nan", "beds": "nan", "emergency": "nan", "opening_hours": "nan", "contact:phone": "nan" }, "geometry": { "type": "Point", "coordinates": [ -122.3421412, 47.6089338 ] } },
{ "type": "Feature", "properties": { "element": "node", "id": 13159938701, "addr:city": "Seattle", "addr:housenumber": "401", "addr:postcode": "98104", "addr:state": "WA", "addr:street": "Broadway", "amenity": "clinic", "healthcare": "clinic", "name": "UW Family Medicine Clinic at Harborview", "phone": "nan", "source": "nan", "brand": "nan", "brand:wikidata": "nan", "operator": "nan", "operator:type": "nan", "operator:wikidata": "nan", "operator:wikipedia": "nan", "urgent_care": "nan", "check_date": "nan", "addr:unit": "2074", "contact:website": "nan", "addr:floor": "nan", "website": "https://www.uwmedicine.org/locations/family-medicine-harborview", "healthcare:speciality": "nan", "level": "1", "building": "nan", "note": "nan", "building:levels": "nan", "alt_name": "nan", "building:material": "nan", "start_date": "nan", "wikidata": "nan", "wikipedia": "nan", "disused:amenity": "nan", "beds": "nan", "emergency": "nan", "opening_hours": "nan", "contact:phone": "nan" }, "geometry": { "type": "Point", "coordinates": [ -122.3209484, 47.6055653 ] } },
{ "type": "Feature", "properties": { "element": "way", "id": 26421087, "addr:city": "Seattle", "addr:housenumber": "nan", "addr:postcode": "98104", "addr:state": "nan", "addr:street": "nan", "amenity": "fire_station", "healthcare": "nan", "name": "Fire Station No.10", "phone": "nan", "source": "Pioneer Square Association;data.seattle.gov", "brand": "nan", "brand:wikidata": "nan", "operator": "Seattle Fire Department", "operator:type": "nan", "operator:wikidata": "nan", "operator:wikipedia": "nan", "urgent_care": "nan", "check_date": "nan", "addr:unit": "nan", "contact:website": "nan", "addr:floor": "nan", "website": "nan", "healthcare:speciality": "nan", "level": "nan", "building": "yes", "note": "Fire Station", "building:levels": "nan", "alt_name": "nan", "building:material": "nan", "start_date": "nan", "wikidata": "nan", "wikipedia": "nan", "disused:amenity": "nan", "beds": "nan", "emergency": "nan", "opening_hours": "nan", "contact:phone": "nan" }, "geometry": { "type": "Polygon", "coordinates": [ [ [ -122.3288022, 47.6010888 ], [ -122.328804, 47.6013163 ], [ -122.3285384, 47.6013173 ], [ -122.3282122, 47.6013185 ], [ -122.32821, 47.6010909 ], [ -122.328538, 47.6010897 ], [ -122.3288022, 47.6010888 ] ] ] } },
{ "type": "Feature", "properties": { "element": "way", "id": 51969310, "addr:city": "Seattle", "addr:housenumber": "1401", "addr:postcode": "98104", "addr:state": "WA", "addr:street": "Madison Street", "amenity": "clinic", "healthcare": "clinic", "name": "Swedish Family Medicine", "phone": "nan", "source": "King County GIS", "brand": "nan", "brand:wikidata": "nan", "operator": "nan", "operator:type": "nan", "operator:wikidata": "nan", "operator:wikipedia": "nan", "urgent_care": "nan", "check_date": "nan", "addr:unit": "nan", "contact:website": "nan", "addr:floor": "nan", "website": "nan", "healthcare:speciality": "nan", "level": "nan", "building": "yes", "note": "nan", "building:levels": "3", "alt_name": "nan", "building:material": "nan", "start_date": "nan", "wikidata": "nan", "wikipedia": "nan", "disused:amenity": "nan", "beds": "nan", "emergency": "nan", "opening_hours": "nan", "contact:phone": "nan" }, "geometry": { "type": "Polygon", "coordinates": [ [ [ -122.3209335, 47.610721 ], [ -122.3212943, 47.6105695 ], [ -122.3212273, 47.610497 ], [ -122.3213704, 47.6104369 ], [ -122.3216249, 47.6107123 ], [ -122.3214817, 47.6107724 ], [ -122.3213938, 47.6106773 ], [ -122.3213189, 47.6107087 ], [ -122.3213211, 47.6107112 ], [ -122.3209753, 47.6108564 ], [ -122.3209339, 47.6108461 ], [ -122.3209335, 47.610721 ] ] ] } },
{ "type": "Feature", "properties": { "element": "way", "id": 184526371, "addr:city": "Seattle", "addr:housenumber": "904", "addr:postcode": "98104", "addr:state": "WA", "addr:street": "7th Avenue", "amenity": "clinic", "healthcare": "clinic", "name": "Optum Madison Center", "phone": "nan", "source": "King County GIS", "brand": "nan", "brand:wikidata": "nan", "operator": "nan", "operator:type": "nan", "operator:wikidata": "nan", "operator:wikipedia": "nan", "urgent_care": "nan", "check_date": "nan", "addr:unit": "nan", "contact:website": "nan", "addr:floor": "nan", "website": "https://www.polyclinic.com/", "healthcare:speciality": "nan", "level": "nan", "building": "yes", "note": "nan", "building:levels": "9", "alt_name": "Polyclinic", "building:material": "glass", "start_date": "nan", "wikidata": "nan", "wikipedia": "nan", "disused:amenity": "nan", "beds": "nan", "emergency": "nan", "opening_hours": "nan", "contact:phone": "nan" }, "geometry": { "type": "Polygon", "coordinates": [ [ [ -122.3293768, 47.6074655 ], [ -122.3292376, 47.607272 ], [ -122.3288795, 47.6069663 ], [ -122.3288104, 47.6070035 ], [ -122.3288213, 47.6070174 ], [ -122.3287851, 47.6070316 ], [ -122.3287669, 47.6070125 ], [ -122.3286298, 47.6070673 ], [ -122.3285273, 47.6071111 ], [ -122.3289975, 47.6076262 ], [ -122.3292666, 47.6075156 ], [ -122.3292504, 47.6074949 ], [ -122.3292769, 47.6074839 ], [ -122.3292906, 47.6074966 ], [ -122.3293768, 47.6074655 ] ] ] } },
{ "type": "Feature", "properties": { "element": "way", "id": 226321775, "addr:city": "Seattle", "addr:housenumber": "610", "addr:postcode": "98104", "addr:state": "WA", "addr:street": "5th Avenue", "amenity": "police", "healthcare": "nan", "name": "Seattle Police Department", "phone": "nan", "source": "King County GIS;data.seattle.gov", "brand": "nan", "brand:wikidata": "nan", "operator": "nan", "operator:type": "nan", "operator:wikidata": "nan", "operator:wikipedia": "nan", "urgent_care": "nan", "check_date": "nan", "addr:unit": "nan", "contact:website": "nan", "addr:floor": "nan", "website": "nan", "healthcare:speciality": "nan", "level": "nan", "building": "yes", "note": "nan", "building:levels": "13", "alt_name": "nan", "building:material": "nan", "start_date": "2002", "wikidata": "Q23302932", "wikipedia": "en:Seattle Justice Center", "disused:amenity": "nan", "beds": "nan", "emergency": "nan", "opening_hours": "nan", "contact:phone": "nan" }, "geometry": { "type": "Polygon", "coordinates": [ [ [ -122.3294862, 47.6042182 ], [ -122.3295852, 47.6043264 ], [ -122.3296452, 47.604392 ], [ -122.3292584, 47.6045528 ], [ -122.3291891, 47.604477 ], [ -122.3291282, 47.6045024 ], [ -122.3290385, 47.6044043 ], [ -122.3290995, 47.604379 ], [ -122.3293779, 47.6042632 ], [ -122.3294862, 47.6042182 ] ] ] } },
{ "type": "Feature", "properties": { "element": "way", "id": 232088563, "addr:city": "Seattle", "addr:housenumber": "925", "addr:postcode": "98104", "addr:state": "WA", "addr:street": "Alaskan Way", "amenity": "fire_station", "healthcare": "nan", "name": "Seattle Fire Station #5", "phone": "nan", "source": "King County GIS;data.seattle.gov", "brand": "nan", "brand:wikidata": "nan", "operator": "nan", "operator:type": "nan", "operator:wikidata": "nan", "operator:wikipedia": "nan", "urgent_care": "nan", "check_date": "nan", "addr:unit": "nan", "contact:website": "nan", "addr:floor": "nan", "website": "https://www.seattle.gov/fire-facilities-and-emergency-response-levy/neighborhood-fire-stations/station-5---seattle-waterfront", "healthcare:speciality": "nan", "level": "nan", "building": "yes", "note": "nan", "building:levels": "nan", "alt_name": "nan", "building:material": "nan", "start_date": "1963", "wikidata": "nan", "wikipedia": "nan", "disused:amenity": "fire_station", "beds": "nan", "emergency": "nan", "opening_hours": "nan", "contact:phone": "nan" }, "geometry": { "type": "Polygon", "coordinates": [ [ [ -122.338621, 47.6035386 ], [ -122.3389389, 47.6035371 ], [ -122.3389412, 47.6037541 ], [ -122.3387672, 47.603755 ], [ -122.3387664, 47.6036852 ], [ -122.3386862, 47.6036856 ], [ -122.3386859, 47.6036576 ], [ -122.3386223, 47.6036579 ], [ -122.338621, 47.6035386 ] ] ] } },
{ "type": "Feature", "properties": { "element": "way", "id": 236755629, "addr:city": "Seattle", "addr:housenumber": "1145", "addr:postcode": "98122", "addr:state": "WA", "addr:street": "Broadway", "amenity": "clinic", "healthcare": "clinic", "name": "The Polyclinic", "phone": "nan", "source": "nan", "brand": "nan", "brand:wikidata": "nan", "operator": "nan", "operator:type": "nan", "operator:wikidata": "nan", "operator:wikipedia": "nan", "urgent_care": "nan", "check_date": "2024-09-17", "addr:unit": "nan", "contact:website": "nan", "addr:floor": "nan", "website": "https://www.polyclinic.com/", "healthcare:speciality": "nan", "level": "nan", "building": "yes", "note": "nan", "building:levels": "nan", "alt_name": "nan", "building:material": "nan", "start_date": "nan", "wikidata": "nan", "wikipedia": "nan", "disused:amenity": "nan", "beds": "nan", "emergency": "nan", "opening_hours": "nan", "contact:phone": "nan" }, "geometry": { "type": "Polygon", "coordinates": [ [ [ -122.3216562, 47.6124221 ], [ -122.3216644, 47.6124217 ], [ -122.3216732, 47.6124239 ], [ -122.3216796, 47.6124278 ], [ -122.3216842, 47.6124322 ], [ -122.3216868, 47.6124377 ], [ -122.3216875, 47.6124436 ], [ -122.3216864, 47.6124505 ], [ -122.3216826, 47.6124566 ], [ -122.3216766, 47.6124613 ], [ -122.3219574, 47.6127698 ], [ -122.3218314, 47.6128237 ], [ -122.3218454, 47.6128401 ], [ -122.3217354, 47.6128855 ], [ -122.3217316, 47.6128816 ], [ -122.3216377, 47.6129223 ], [ -122.321614, 47.6128971 ], [ -122.3215461, 47.6129271 ], [ -122.3214711, 47.6128471 ], [ -122.3214627, 47.6128503 ], [ -122.3214079, 47.6127938 ], [ -122.3214336, 47.6127838 ], [ -122.321297, 47.6126375 ], [ -122.3210411, 47.6127446 ], [ -122.3210328, 47.6127369 ], [ -122.3209828, 47.6127576 ], [ -122.3209752, 47.6127588 ], [ -122.3209656, 47.6127585 ], [ -122.3209563, 47.6127564 ], [ -122.3209487, 47.6127529 ], [ -122.320944, 47.6127477 ], [ -122.3209414, 47.6127416 ], [ -122.3209413, 47.6127355 ], [ -122.3209436, 47.6127301 ], [ -122.3209361, 47.6127268 ], [ -122.3209355, 47.6126619 ], [ -122.3209366, 47.6122003 ], [ -122.3209579, 47.6121916 ], [ -122.3210093, 47.6121699 ], [ -122.3209933, 47.6121549 ], [ -122.3210093, 47.6121482 ], [ -122.3210167, 47.6121555 ], [ -122.3212961, 47.612035 ], [ -122.3213091, 47.6120488 ], [ -122.3213584, 47.6121027 ], [ -122.3213635, 47.6121012 ], [ -122.3216562, 47.6124221 ] ] ] } },
{ "type": "Feature", "properties": { "element": "way", "id": 297302349, "addr:city": "Seattle", "addr:housenumber": "1100", "addr:postcode": "98101", "addr:state": "WA", "addr:street": "9th Avenue", "amenity": "hospital", "healthcare": "hospital", "name": "Virginia Mason Hospital & Seattle Medical Center", "phone": "+1-206-223-6600", "source": "nan", "brand": "nan", "brand:wikidata": "nan", "operator": "CommonSpirit Health", "operator:type": "nan", "operator:wikidata": "Q85753582", "operator:wikipedia": "nan", "urgent_care": "nan", "check_date": "nan", "addr:unit": "nan", "contact:website": "nan", "addr:floor": "nan", "website": "https://www.vmfh.org/our-hospitals/virginia-mason-medical-center", "healthcare:speciality": "nan", "level": "nan", "building": "nan", "note": "nan", "building:levels": "nan", "alt_name": "VM Seattle", "building:material": "nan", "start_date": "nan", "wikidata": "Q7934401", "wikipedia": "en:Virginia Mason Hospital", "disused:amenity": "nan", "beds": "336", "emergency": "no", "opening_hours": "24/7", "contact:phone": "nan" }, "geometry": { "type": "Polygon", "coordinates": [ [ [ -122.3276231, 47.6111979 ], [ -122.3280638, 47.6110132 ], [ -122.329836, 47.6102704 ], [ -122.3286123, 47.6089434 ], [ -122.3259345, 47.6100658 ], [ -122.3264941, 47.6106726 ], [ -122.326959, 47.6104777 ], [ -122.3276231, 47.6111979 ] ] ] } },
{ "type": "Feature", "properties": { "element": "way", "id": 333369584, "addr:city": "Seattle", "addr:housenumber": "747", "addr:postcode": "98122", "addr:state": "WA", "addr:street": "Broadway", "amenity": "hospital", "healthcare": "hospital", "name": "Swedish First Hill Medical Center", "phone": "nan", "source": "nan", "brand": "nan", "brand:wikidata": "nan", "operator": "Swedish", "operator:type": "nan", "operator:wikidata": "nan", "operator:wikipedia": "nan", "urgent_care": "nan", "check_date": "nan", "addr:unit": "nan", "contact:website": "http://www.swedish.org/locations/first-hill-campus", "addr:floor": "nan", "website": "nan", "healthcare:speciality": "nan", "level": "nan", "building": "nan", "note": "nan", "building:levels": "nan", "alt_name": "nan", "building:material": "nan", "start_date": "nan", "wikidata": "Q7654755", "wikipedia": "nan", "disused:amenity": "nan", "beds": "830", "emergency": "yes", "opening_hours": "24/7", "contact:phone": "+1-206-386-6000" }, "geometry": { "type": "Polygon", "coordinates": [ [ [ -122.3251272, 47.6093391 ], [ -122.3248692, 47.6094481 ], [ -122.3247894, 47.6094819 ], [ -122.3223102, 47.6105224 ], [ -122.3218255, 47.6107272 ], [ -122.3217521, 47.6106512 ], [ -122.3212126, 47.6100908 ], [ -122.3211505, 47.6100257 ], [ -122.321269, 47.6099797 ], [ -122.3208112, 47.6094675 ], [ -122.3207879, 47.6080217 ], [ -122.3193906, 47.6080155 ], [ -122.3193912, 47.6078917 ], [ -122.3209214, 47.6072768 ], [ -122.3214013, 47.6070752 ], [ -122.3224839, 47.6066445 ], [ -122.322528, 47.6064931 ], [ -122.3251272, 47.6093391 ] ] ] } }
]
}
